[{"OBJECT_NAME":"STARLINK-5885","OBJECT_ID":"2023-058AM","EPOCH":"2026-03-09T21:32:14.476992","MEAN_MOTION":15.01261956,"ECCENTRICITY":0.00029947,"INCLINATION":97.6049,"RA_OF_ASC_NODE":70.4347,"ARG_OF_PERICENTER":117.4705,"MEAN_ANOMALY":242.6825,"EPHEMERIS_TYPE":0,"CLASSIFICATION_TYPE":"U","NORAD_CAT_ID":56352,"ELEMENT_SET_NO":999,"REV_AT_EPOCH":15816,"BSTAR":1.6721025e-5,"MEAN_MOTION_DOT":1.56e-6,"MEAN_MOTION_DDOT":0},{"OBJECT_NAME":"PSLV DEB","OBJECT_ID":"2001-049NQ","EPOCH":"2026-03-09T02:43:10.058304","MEAN_MOTION":14.89489046,"ECCENTRICITY":0.00529867,"INCLINATION":98.0964,"RA_OF_ASC_NODE":127.0334,"ARG_OF_PERICENTER":97.8554,"MEAN_ANOMALY":262.8682,"EPHEMERIS_TYPE":0,"CLASSIFICATION_TYPE":"U","NORAD_CAT_ID":27653,"ELEMENT_SET_NO":999,"REV_AT_EPOCH":27440,"BSTAR":0.00043563035,"MEAN_MOTION_DOT":4.198e-5,"MEAN_MOTION_DDOT":0}]
